HIMAWARI-8              
1 40267U 14060A   23279.55934340 -.00000285  00000+0  00000+0 0  9990
2 40267   0.0186 185.4411 0000912  40.1133 131.4167  1.00270672 32883
